NORAD_CAT_ID,OBJECT_NAME,OBJECT_TYPE,EPOCH,MEAN_MOTION,ECCENTRICITY,INCLINATION,RA_OF_ASC_NODE,ARG_OF_PERICENTER,MEAN_ANOMALY,BSTAR,MEAN_MOTION_DOT,MEAN_MOTION_DDOT,TLE_LINE0,TLE_LINE1,TLE_LINE2,SEMIMAJOR_AXIS,PERIOD,APOGEE,PERIGEE,DECAYED
52379.0,STARLINK-3800,PAYLOAD,2022-12-19 21:55:54,15.08853239,0.0002196,53.22,67.3926,33.5659,326.5472,0.00024558,3.624e-05,0.0,0 STARLINK-3800,1 52379U 22045BA  22353.91383093  .00003624  00000-0  24558-3 0  9992,2 52379  53.2200  67.3926 0002196  33.5659 326.5472 15.08853239 38422,6917.84,95.437,541.224,538.186,0.0
52379.0,STARLINK-3800,PAYLOAD,2022-12-20 10:39:00,15.08846524,0.000206,53.2198,65.0123,29.7876,330.3233,0.00017882,2.559e-05,0.0,0 STARLINK-3800,1 52379U 22045BA  22354.44375492  .00002559  00000-0  17882-3 0  9993,2 52379  53.2198  65.0123 0002060  29.7876 330.3233 15.08846524 38506,6917.86,95.437,541.151,538.3,0.0
52379.0,STARLINK-3800,PAYLOAD,2022-12-21 04:08:15,15.08840244,0.0002544,53.2201,61.7457,39.2034,320.9142,3.3594000000000004e-05,2.46e-06,0.0,0 STARLINK-3800,1 52379U 22045BA  22355.17240497  .00000246  00000-0  33594-4 0  9990,2 52379  53.2201  61.7457 0002544  39.2034 320.9142 15.08840244 38612,6917.88,95.438,541.505,537.985,0.0
52379.0,STARLINK-3800,PAYLOAD,2022-12-21 10:29:48,15.08837226,0.0002145,53.2199,60.5484,26.8457,333.2646,-0.00012299,-2.245e-05,0.0,0 STARLINK-3800,1 52379U 22045BA  22355.43737195 -.00002245  00000-0 -12299-3 0  9996,2 52379  53.2199  60.5484 0002145  26.8457 333.2646 15.08837226 38659,6917.889,95.438,541.238,538.27,0.0
52379.0,STARLINK-3800,PAYLOAD,2022-12-22 10:20:35,15.08845456,0.0002065,53.2206,56.0919,25.9954,334.1142,2.5303e-05,1.15e-06,0.0,0 STARLINK-3800,1 52379U 22045BA  22356.43096297  .00000115  00000-0  25303-4 0  9991,2 52379  53.2206  56.0919 0002065  25.9954 334.1142 15.08845456 38806,6917.864000000001,95.437,541.1569999999998,538.3,0.0
52379.0,STARLINK-3800,PAYLOAD,2022-12-22 16:42:07,15.08843668,0.0002169,53.2202,54.9027,32.0971,328.0153,6.3619e-05,7.24e-06,0.0,0 STARLINK-3800,1 52379U 22045BA  22356.69592362  .00000724  00000-0  63619-4 0  9991,2 52379  53.2202  54.9027 0002169  32.0971 328.0153 15.08843668 38843,6917.869000000002,95.437,541.235,538.234,0.0
52379.0,STARLINK-3800,PAYLOAD,2022-12-23 03:49:50,15.08827444,0.0002237,53.2203,52.8212,32.2366,327.8762,0.00021097,3.07e-05,0.0,0 STARLINK-3800,1 52379U 22045BA  22357.15961323  .00003070  00000-0  21097-3 0  9990,2 52379  53.2203  52.8212 0002237  32.2366 327.8762 15.08827444 38918,6917.919,95.438,541.331,538.236,0.0
52379.0,STARLINK-3800,PAYLOAD,2022-12-23 10:11:23,15.08827011,0.0002252,53.2204,51.6318,32.8426,327.2706,0.00019381,2.797e-05,0.0,0 STARLINK-3800,1 52379U 22045BA  22357.42457717  .00002797  00000-0  19381-3 0  9995,2 52379  53.2204  51.6318 0002252  32.8426 327.2706 15.08827011 38959,6917.92,95.438,541.3430000000002,538.227,0.0
52379.0,STARLINK-3800,PAYLOAD,2022-12-23 14:57:32,15.08834787,0.0002329,53.2197,50.7399,33.2801,326.8337,0.00024376,3.593e-05,0.0,0 STARLINK-3800,1 52379U 22045BA  22357.62329620  .00003593  00000-0  24376-3 0  9993,2 52379  53.2197  50.7399 0002329  33.2801 326.8337 15.08834787 38982,6917.896,95.438,541.373,538.15,0.0
52379.0,STARLINK-3800,PAYLOAD,2022-12-24 03:40:37,15.08850984,0.0002362,53.2194,48.3613,33.7294,326.3849,0.00031776,4.774e-05,0.0,0 STARLINK-3800,1 52379U 22045BA  22358.15320845  .00004774  00000-0  31776-3 0  9996,2 52379  53.2194  48.3613 0002362  33.7294 326.3849 15.08850984 39069,6917.847,95.437,541.346,538.078,0.0
52379.0,STARLINK-3800,PAYLOAD,2022-12-24 10:02:09,15.08847981,0.000233,53.2195,47.1716,34.6873,325.4271,0.00034267,5.171e-05,0.0,0 STARLINK-3800,1 52379U 22045BA  22358.41816994  .00005171  00000-0  34267-3 0  9990,2 52379  53.2195  47.1716 0002330  34.6873 325.4271 15.08847981 39106,6917.856,95.437,541.3330000000002,538.109,0.0
52379.0,STARLINK-3800,PAYLOAD,2022-12-24 14:48:19,15.08842466,0.0002262,53.2199,46.2798,30.097,330.0152,5.56e-05,5.97e-06,0.0,0 STARLINK-3800,1 52379U 22045BA  22358.61689083  .00000597  00000-0  55600-4 0  9991,2 52379  53.2199  46.2798 0002262  30.0970 330.0152 15.08842466 39138,6917.873000000001,95.437,541.303,538.173,0.0
52379.0,STARLINK-3800,PAYLOAD,2022-12-25 11:28:20,15.08833332,0.0002341,53.2209,42.415,28.857,331.2551,4.6349e-05,4.49e-06,0.0,0 STARLINK-3800,1 52379U 22045BA  22359.47801602  .00000449  00000-0  46349-4 0  9995,2 52379  53.2209  42.4150 0002341  28.8570 331.2551 15.08833332 39261,6917.901,95.438,541.385,538.146,0.0
52379.0,STARLINK-3800,PAYLOAD,2022-12-25 13:03:43,15.08833716,0.0002337,53.2207,42.1173,30.6268,329.486,4.8875e-05,4.89e-06,0.0,0 STARLINK-3800,1 52379U 22045BA  22359.54425557  .00000489  00000-0  48875-4 0  9994,2 52379  53.2207  42.1173 0002337  30.6268 329.4860 15.08833716 39270,6917.9,95.438,541.381,538.148,0.0
52379.0,STARLINK-3800,PAYLOAD,2022-12-25 19:25:16,15.08835653,0.0002389,53.2208,40.928,30.7902,329.3230000000001,8.7433e-06,-1.49e-06,0.0,0 STARLINK-3800,1 52379U 22045BA  22359.80921555 -.00000149  00000-0  87433-5 0  9990,2 52379  53.2208  40.9280 0002389  30.7902 329.3230 15.08835653 39316,6917.894,95.438,541.411,538.106,0.0
52379.0,STARLINK-3800,PAYLOAD,2022-12-26 03:22:09,15.08908916,0.0002697,53.2207,39.4409,19.7744,340.3352,-0.0010496,-0.00016987,0.0,0 STARLINK-3800,1 52379U 22045BA  22360.14038967 -.00016987  00000-0 -10496-2 0  9995,2 52379  53.2207  39.4409 0002697  19.7744 340.3352 15.08908916 39360,6917.67,95.433,541.4,537.669,0.0
52379.0,STARLINK-3800,PAYLOAD,2022-12-26 12:54:30,15.08836416,0.0002391,53.2201,37.6569,27.3069,332.8048,7.0340999999999984e-06,-1.76e-06,0.0,0 STARLINK-3800,1 52379U 22045BA  22360.53785577 -.00000176  00000-0  70341-5 0  9994,2 52379  53.2201  37.6569 0002391  27.3069 332.8048 15.08836416 39427,6917.891,95.438,541.41,538.102,0.0
52379.0,STARLINK-3800,PAYLOAD,2022-12-27 03:12:58,15.08844179,0.0002407,53.2206,34.9804,28.526,331.5864,9.4825e-05,1.221e-05,0.0,0 STARLINK-3800,1 52379U 22045BA  22361.13400816  .00001221  00000-0  94825-4 0  9994,2 52379  53.2206  34.9804 0002407  28.5260 331.5864 15.08844179 39515,6917.868,95.437,541.398,538.067,0.0
52379.0,STARLINK-3800,PAYLOAD,2022-12-27 12:45:17,15.08844608,0.0002423,53.2204,33.1963,28.3576,331.7548,0.00011305,1.512e-05,0.0,0 STARLINK-3800,1 52379U 22045BA  22361.53144719  .00001512  00000-0  11305-3 0  9999,2 52379  53.2204  33.1963 0002423  28.3576 331.7548 15.08844608 39570,6917.866,95.437,541.408,538.055,0.0
52379.0,STARLINK-3800,PAYLOAD,2022-12-28 11:00:40,15.08845626,0.0002435999999999,53.2206,29.0335,29.2983,330.8145,0.0001440999999999,2.006e-05,0.0,0 STARLINK-3800,1 52379U 22045BA  22362.45880266  .00002006  00000-0  14410-3 0  9994,2 52379  53.2206  29.0335 0002436  29.2983 330.8145 15.08845626 39715,6917.863,95.437,541.413,538.043,0.0
52379.0,STARLINK-3800,PAYLOAD,2022-12-29 02:54:33,15.0883021,0.0002516,53.2204,26.0598,29.0449,331.0683,-9.8789e-05,-1.86e-05,0.0,0 STARLINK-3800,1 52379U 22045BA  22363.12121997 -.00001860  00000-0 -98789-4 0  9999,2 52379  53.2204  26.0598 0002516  29.0449 331.0683 15.08830210 39819,6917.91,95.438,541.516,538.035,0.0
52379.0,STARLINK-3800,PAYLOAD,2022-12-29 10:51:29,15.08829648,0.0002466,53.2203,24.5731,26.0323,334.0793,-9.7249e-05,-1.835e-05,0.0,0 STARLINK-3800,1 52379U 22045BA  22363.45242204 -.00001835  00000-0 -97249-4 0  9992,2 52379  53.2203  24.5731 0002466  26.0323 334.0793 15.08829648 39865,6917.9119999999975,95.438,541.4830000000002,538.071,0.0
52379.0,STARLINK-3800,PAYLOAD,2022-12-29 18:48:25,15.08823876,0.0002460999999999,53.22,23.0865,26.5111,333.6007,-0.00017406,-3.056e-05,0.0,0 STARLINK-3800,1 52379U 22045BA  22363.78363107 -.00003056  00000-0 -17406-3 0  9997,2 52379  53.2200  23.0865 0002461  26.5111 333.6007 15.08823876 39915,6917.93,95.439,541.497,538.092,0.0
52379.0,STARLINK-3800,PAYLOAD,2022-12-30 09:06:53,15.08832596,0.0002383,53.2186,20.4104,25.5271,334.5838,-1.4e-05,-5.11e-06,0.0,0 STARLINK-3800,1 52379U 22045BA  22364.37978538 -.00000511  00000-0 -14000-4 0  9994,2 52379  53.2186  20.4104 0002383  25.5271 334.5838 15.08832596 40007,6917.903,95.438,541.4169999999998,538.119,0.0
52379.0,STARLINK-3800,PAYLOAD,2022-12-30 18:39:11,15.08842317,0.0002614,53.2197,18.6264,26.9635,333.1493,0.00013797,1.908e-05,0.0,0 STARLINK-3800,1 52379U 22045BA  22364.77721820  .00001908  00000-0  13797-3 0  9998,2 52379  53.2197  18.6264 0002614  26.9635 333.1493 15.08842317 40061,6917.873000000001,95.437,541.547,537.93,0.0
52379.0,STARLINK-3800,PAYLOAD,2022-12-31 07:22:15,15.08864372,0.0002569,53.2189,16.2472,30.4835,329.6306,0.00018475,2.655e-05,0.0,0 STARLINK-3800,1 52379U 22045BA  22365.30712275  .00002655  00000-0  18475-3 0  9990,2 52379  53.2189  16.2472 0002569  30.4835 329.6306 15.08864372 40145,6917.806,95.436,541.448,537.894,0.0
52379.0,STARLINK-3800,PAYLOAD,2022-12-31 10:33:02,15.08851606,0.0002955,53.2188,15.6537,10.407,349.6982,0.00039114,5.944e-05,0.0,0 STARLINK-3800,1 52379U 22045BA  22365.43960705  .00005944  00000-0  39114-3 0  9994,2 52379  53.2188  15.6537 0002955  10.4070 349.6982 15.08851606 40167,6917.845,95.437,541.754,537.6659999999998,0.0
52379.0,STARLINK-3800,PAYLOAD,2022-12-31 18:29:58,15.08850159,0.0002538,53.2177,14.1662,26.7628,333.3494,0.00041077,6.257e-05,0.0,0 STARLINK-3800,1 52379U 22045BA  22365.77081701  .00006257  00000-0  41077-3 0  9990,2 52379  53.2177  14.1662 0002538  26.7628 333.3494 15.08850159 40210,6917.849,95.437,541.47,537.9590000000002,0.0
52379.0,STARLINK-3800,PAYLOAD,2023-01-01 07:13:04,15.08833737,0.0002421999999999,53.222,11.7868,32.8699,327.2444,0.00021134,3.076e-05,0.0,0 STARLINK-3800,1 52379U 22045BA  23001.30074210  .00003076  00000-0  21134-3 0  9992,2 52379  53.2220  11.7868 0002422  32.8699 327.2444 15.08833737 40296,6917.9,95.438,541.44,538.089,0.0
